KUIPER-00061            
1 64521U 25134X   25269.25003472 -.01310422  00000+0 -99292-1 0  9996
2 64521  51.8889 236.8228 0008439  79.8389 101.7528 15.04834302  3847
KUIPER-00062            
1 64522U 25134Y   25269.25003472 -.01833456  00000+0 -15814+0 0  9990
2 64522  51.8887 243.2316 0009992  98.3757 241.9952 15.00551155  4977
KUIPER-00063            
1 64523U 25134Z   25269.24746383  .00006627  00000+0  90297-3 0  9996
2 64523  51.9008 245.1301 0004526  54.3320 305.8064 14.79672549 15652
KUIPER-00064            
1 64524U 25134AA  25269.25003472 -.00000441  00000+0 -28776-4 0  9997
2 64524  51.9013 242.3109 0006198 162.6632 311.2325 14.79781888  4702
KUIPER-00065            
1 64525U 25134AB  25268.67107832  .00006305  00000+0  85739-3 0  9992
2 64525  51.8995 249.9112 0012025  95.8935 264.3399 14.79796579 15521
KUIPER-00066            
1 64526U 25134AC  25269.07412377  .00028876  00000+0  13922-2 0  9992
2 64526  51.8894 239.7567 0006218  83.8107 276.3580 15.18469545 15716
KUIPER-00069            
1 64816U 25151A   25269.27386568  .00088083  00000+0  23328-2 0  9994
2 64816  51.8785 299.9917 0007859  41.3815 318.7766 15.37580859 12246
KUIPER-00070            
1 64817U 25151B   25269.27801105  .00005507  00000+0  75308-3 0  9990
2 64817  51.8990 312.5185 0009666  73.3021 286.9002 14.79790037 12072
